{"type": "FeatureCollection", "features": [{"type": "Feature", "properties": {"norad_id": 26766, "name": "INTELSAT 10 (IS-10)", "group": "intelsat", "lat": 8.450774082778963, "lon": 139.28557512671003, "alt_km": 36149.43480713507, "timestamp": "2025-12-08T17:43:04.562102+00:00", "meta": {"OBJECT_NAME": "INTELSAT 10 (IS-10)", "OBJECT_ID": "2001-019A", "EPOCH": "2025-12-07T12:34:38.803008", "MEAN_MOTION": 0.99078913, "ECCENTRICITY": 0.00078602, "INCLINATION": 8.6172, "RA_OF_ASC_NODE": 61.2081, "ARG_OF_PERICENTER": 221.0792, "MEAN_ANOMALY": 144.0907, "EPHEMERIS_TYPE": 0, "CLASSIFICATION_TYPE": "U", "NORAD_CAT_ID": 26766, "ELEMENT_SET_NO": 999, "REV_AT_EPOCH": 4368, "BSTAR": 0, "MEAN_MOTION_DOT": -2.59e-06, "MEAN_MOTION_DDOT": 0}, "tle": {"line1": "1 26766U 01019A   25341.52406022 -.00000259  00000+0  00000+0 0  9999", "line2": "2 26766   8.6172  61.2081 0007860 221.0792 144.0907  0.99078913 43687"}}, "geometry": {"type": "Point", "coordinates": [139.28557512671003, 8.450774082778963]}}, {"type": "Feature", "properties": {"norad_id": 26900, "name": "INTELSAT 902 (IS-902)", "group": "intelsat", "lat": -3.5820476927669045, "lon": -66.76750532845824, "alt_km": 35774.560741243775, "timestamp": "2025-12-08T17:43:04.562129+00:00", "meta": {"OBJECT_NAME": "INTELSAT 902 (IS-902)", "OBJECT_ID": "2001-039A", "EPOCH": "2025-12-01T16:59:59.311968", "MEAN_MOTION": 1.00270327, "ECCENTRICITY": 0.00043097, "INCLINATION": 5.6187, "RA_OF_ASC_NODE": 74.2002, "ARG_OF_PERICENTER": 175.119, "MEAN_ANOMALY": 26.3816, "EPHEMERIS_TYPE": 0, "CLASSIFICATION_TYPE": "U", "NORAD_CAT_ID": 26900, "ELEMENT_SET_NO": 999, "REV_AT_EPOCH": 8871, "BSTAR": 0, "MEAN_MOTION_DOT": -2.63e-06, "MEAN_MOTION_DDOT": 0}, "tle": {"line1": "1 26900U 01039A   25335.70832537 -.00000263  00000+0  00000+0 0  9993", "line2": "2 26900   5.6187  74.2002 0004309 175.1190  26.3816  1.00270327 88713"}}, "geometry": {"type": "Point", "coordinates": [-66.76750532845824, -3.5820476927669045]}}, {"type": "Feature", "properties": {"norad_id": 27380, "name": "INTELSAT 904 (IS-904)", "group": "intelsat", "lat": -5.621727632644164, "lon": -48.174564573985506, "alt_km": 35780.90257463335, "timestamp": "2025-12-08T17:43:04.562147+00:00", "meta": {"OBJECT_NAME": "INTELSAT 904 (IS-904)", "OBJECT_ID": "2002-007A", "EPOCH": "2025-12-08T03:10:49.968192", "MEAN_MOTION": 1.00268453, "ECCENTRICITY": 0.00017836, "INCLINATION": 6.4434, "RA_OF_ASC_NODE": 71.4841, "ARG_OF_PERICENTER": 217.0339, "MEAN_ANOMALY": 164.8002, "EPHEMERIS_TYPE": 0, "CLASSIFICATION_TYPE": "U", "NORAD_CAT_ID": 27380, "ELEMENT_SET_NO": 999, "REV_AT_EPOCH": 4985, "BSTAR": 0, "MEAN_MOTION_DOT": -2.26e-06, "MEAN_MOTION_DDOT": 0}, "tle": {"line1": "1 27380U 02007A   25342.13252278 -.00000226  00000+0  00000+0 0  9994", "line2": "2 27380   6.4434  71.4841 0001783 217.0339 164.8002  1.00268453 49858"}}, "geometry": {"type": "Point", "coordinates": [-48.174564573985506, -5.621727632644164]}}, {"type": "Feature", "properties": {"norad_id": 27426, "name": "DIRECTV 5 (TEMPO 1)", "group": "intelsat", "lat": 1.7888205557794756, "lon": -126.57374549734958, "alt_km": 35773.636891906965, "timestamp": "2025-12-08T17:43:04.562162+00:00", "meta": {"OBJECT_NAME": "DIRECTV 5 (TEMPO 1)", "OBJECT_ID": "2002-023A", "EPOCH": "2025-12-08T06:02:11.611392", "MEAN_MOTION": 1.00271804, "ECCENTRICITY": 0.00039214, "INCLINATION": 4.3907, "RA_OF_ASC_NODE": 77.7036, "ARG_OF_PERICENTER": 198.4634, "MEAN_ANOMALY": 141.524, "EPHEMERIS_TYPE": 0, "CLASSIFICATION_TYPE": "U", "NORAD_CAT_ID": 27426, "ELEMENT_SET_NO": 999, "REV_AT_EPOCH": 8620, "BSTAR": 0, "MEAN_MOTION_DOT": -5.6e-07, "MEAN_MOTION_DDOT": 0}, "tle": {"line1": "1 27426U 02023A   25342.25152328 -.00000056  00000+0  00000+0 0  9992", "line2": "2 27426   4.3907  77.7036 0003921 198.4634 141.5240  1.00271804 86202"}}, "geometry": {"type": "Point", "coordinates": [-126.57374549734958, 1.7888205557794756]}}, {"type": "Feature", "properties": {"norad_id": 27438, "name": "INTELSAT 905 (IS-905)", "group": "intelsat", "lat": 4.48554062320325, "lon": -153.5497976783592, "alt_km": 35778.67194468999, "timestamp": "2025-12-08T17:43:04.562175+00:00", "meta": {"OBJECT_NAME": "INTELSAT 905 (IS-905)", "OBJECT_ID": "2002-027A", "EPOCH": "2025-12-08T05:41:13.241184", "MEAN_MOTION": 1.00271095, "ECCENTRICITY": 0.00029115, "INCLINATION": 6.2743, "RA_OF_ASC_NODE": 72.1062, "ARG_OF_PERICENTER": 189.7236, "MEAN_ANOMALY": 123.5142, "EPHEMERIS_TYPE": 0, "CLASSIFICATION_TYPE": "U", "NORAD_CAT_ID": 27438, "ELEMENT_SET_NO": 999, "REV_AT_EPOCH": 4944, "BSTAR": 0, "MEAN_MOTION_DOT": 9.4e-07, "MEAN_MOTION_DDOT": 0}, "tle": {"line1": "1 27438U 02027A   25342.23695881  .00000094  00000+0  00000+0 0  9994", "line2": "2 27438   6.2743  72.1062 0002911 189.7236 123.5142  1.00271095 49449"}}, "geometry": {"type": "Point", "coordinates": [-153.5497976783592, 4.48554062320325]}}, {"type": "Feature", "properties": {"norad_id": 27445, "name": "GALAXY 3C (G-3C)", "group": "intelsat", "lat": 0.647941359921508, "lon": -111.32265801493716, "alt_km": 35784.47549442225, "timestamp": "2025-12-08T17:43:04.562200+00:00", "meta": {"OBJECT_NAME": "GALAXY 3C (G-3C)", "OBJECT_ID": "2002-030A", "EPOCH": "2025-12-08T06:04:13.145952", "MEAN_MOTION": 1.00270824, "ECCENTRICITY": 0.00011309, "INCLINATION": 3.253, "RA_OF_ASC_NODE": 80.55, "ARG_OF_PERICENTER": 100.4843, "MEAN_ANOMALY": 252.4211, "EPHEMERIS_TYPE": 0, "CLASSIFICATION_TYPE": "U", "NORAD_CAT_ID": 27445, "ELEMENT_SET_NO": 999, "REV_AT_EPOCH": 4457, "BSTAR": 0, "MEAN_MOTION_DOT": -1.51e-06, "MEAN_MOTION_DDOT": 0}, "tle": {"line1": "1 27445U 02030A   25342.25292993 -.00000151  00000+0  00000+0 0  9990", "line2": "2 27445   3.2530  80.5500 0001130 100.4843 252.4211  1.00270824 44571"}}, "geometry": {"type": "Point", "coordinates": [-111.32265801493716, 0.647941359921508]}}, {"type": "Feature", "properties": {"norad_id": 27513, "name": "INTELSAT 906 (IS-906)", "group": "intelsat", "lat": -2.4429743030797515, "lon": 47.78833369094069, "alt_km": 35807.26407164589, "timestamp": "2025-12-08T17:43:04.562223+00:00", "meta": {"OBJECT_NAME": "INTELSAT 906 (IS-906)", "OBJECT_ID": "2002-041A", "EPOCH": "2025-12-08T05:21:00.002016", "MEAN_MOTION": 1.00270727, "ECCENTRICITY": 0.00060743, "INCLINATION": 5.3173, "RA_OF_ASC_NODE": 75.2852, "ARG_OF_PERICENTER": 189.2744, "MEAN_ANOMALY": 317.0603, "EPHEMERIS_TYPE": 0, "CLASSIFICATION_TYPE": "U", "NORAD_CAT_ID": 27513, "ELEMENT_SET_NO": 999, "REV_AT_EPOCH": 8511, "BSTAR": 0, "MEAN_MOTION_DOT": 1.4e-07, "MEAN_MOTION_DDOT": 0}, "tle": {"line1": "1 27513U 02041A   25342.22291669  .00000014  00000+0  00000+0 0  9991", "line2": "2 27513   5.3173  75.2852 0006074 189.2744 317.0603  1.00270727 85111"}}, "geometry": {"type": "Point", "coordinates": [47.78833369094069, -2.4429743030797515]}}, {"type": "Feature", "properties": {"norad_id": 27954, "name": "GALAXY 13 (HORIZONS-1)", "group": "intelsat", "lat": 0.8734199586266762, "lon": -166.50268740660167, "alt_km": 35781.21922325197, "timestamp": "2025-12-08T17:43:04.562237+00:00", "meta": {"OBJECT_NAME": "GALAXY 13 (HORIZONS-1)", "OBJECT_ID": "2003-044A", "EPOCH": "2025-12-08T07:28:59.087136", "MEAN_MOTION": 1.00269587, "ECCENTRICITY": 0.0002058, "INCLINATION": 0.924, "RA_OF_ASC_NODE": 86.5285, "ARG_OF_PERICENTER": 159.2549, "MEAN_ANOMALY": 153.7935, "EPHEMERIS_TYPE": 0, "CLASSIFICATION_TYPE": "U", "NORAD_CAT_ID": 27954, "ELEMENT_SET_NO": 999, "REV_AT_EPOCH": 4465, "BSTAR": 0, "MEAN_MOTION_DOT": 1.35e-06, "MEAN_MOTION_DDOT": 0}, "tle": {"line1": "1 27954U 03044A   25342.31179499  .00000135  00000+0  00000+0 0  9994", "line2": "2 27954   0.9240  86.5285 0002058 159.2549 153.7935  1.00269587 44658"}}, "geometry": {"type": "Point", "coordinates": [-166.50268740660167, 0.8734199586266762]}}, {"type": "Feature", "properties": {"norad_id": 28358, "name": "INTELSAT 10-02", "group": "intelsat", "lat": -0.029839699167948142, "lon": -17.453459538782266, "alt_km": 35782.221722057926, "timestamp": "2025-12-08T17:43:04.562250+00:00", "meta": {"OBJECT_NAME": "INTELSAT 10-02", "OBJECT_ID": "2004-022A", "EPOCH": "2025-12-08T03:19:34.131072", "MEAN_MOTION": 1.00274449, "ECCENTRICITY": 0.00012914, "INCLINATION": 0.0347, "RA_OF_ASC_NODE": 75.2621, "ARG_OF_PERICENTER": 212.0256, "MEAN_ANOMALY": 198.7772, "EPHEMERIS_TYPE": 0, "CLASSIFICATION_TYPE": "U", "NORAD_CAT_ID": 28358, "ELEMENT_SET_NO": 999, "REV_AT_EPOCH": 7864, "BSTAR": 0, "MEAN_MOTION_DOT": -8e-08, "MEAN_MOTION_DDOT": 0}, "tle": {"line1": "1 28358U 04022A   25342.13858948 -.00000008  00000+0  00000+0 0  9993", "line2": "2 28358   0.0347  75.2621 0001291 212.0256 198.7772  1.00274449 78643"}}, "geometry": {"type": "Point", "coordinates": [-17.453459538782266, -0.029839699167948142]}}, {"type": "Feature", "properties": {"norad_id": 28626, "name": "XM-3 (RHYTHM)", "group": "intelsat", "lat": 0.11115241608731151, "lon": 116.83200608174214, "alt_km": 36163.39734373942, "timestamp": "2025-12-08T17:43:04.562263+00:00", "meta": {"OBJECT_NAME": "XM-3 (RHYTHM)", "OBJECT_ID": "2005-008A", "EPOCH": "2025-12-08T07:23:57.897600", "MEAN_MOTION": 0.9895411, "ECCENTRICITY": 0.00013053, "INCLINATION": 0.1631, "RA_OF_ASC_NODE": 81.1205, "ARG_OF_PERICENTER": 262.5344, "MEAN_ANOMALY": 340.0089, "EPHEMERIS_TYPE": 0, "CLASSIFICATION_TYPE": "U", "NORAD_CAT_ID": 28626, "ELEMENT_SET_NO": 999, "REV_AT_EPOCH": 4070, "BSTAR": 0, "MEAN_MOTION_DOT": -2.57e-06, "MEAN_MOTION_DDOT": 0}, "tle": {"line1": "1 28626U 05008A   25342.30830900 -.00000257  00000+0  00000+0 0  9999", "line2": "2 28626   0.1631  81.1205 0001305 262.5344 340.0089  0.98954110 40701"}}, "geometry": {"type": "Point", "coordinates": [116.83200608174214, 0.11115241608731151]}}]}